#cP2010  9 27  0  0  0.00000000      96 ORBIT IGS05 HLM  IGS
## 1603  86400.00000000   900.00000000 55466 0.0000000000000
+   32   G01G02G03G04G05G06G07G08G09G10G11G12G13G14G15G16G17
+        G18G19G20G21G22G23G24G25G26G27G28G29G30G31G32  0  0
+          0  0  0  0  0  0  0  0  0  0  0  0  0  0  0  0  0
+          0  0  0  0  0  0  0  0  0  0  0  0  0  0  0  0  0
+          0  0  0  0  0  0  0  0  0  0  0  0  0  0  0  0  0
++         5  2  2  3  2  2  2  2  2  2  2  2  2  2  2  2  2
++         2  2  2  2  2  2  3  3  2  2  2  2  2  3  2  0  0
++         0  0  0  0  0  0  0  0  0  0  0  0  0  0  0  0  0
++         0  0  0  0  0  0  0  0  0  0  0  0  0  0  0  0  0
++         0  0  0  0  0  0  0  0  0  0  0  0  0  0  0  0  0
%c G  cc GPS ccc cccc cccc cccc cccc ccccc ccccc ccccc ccccc
%c cc cc ccc ccc cccc cccc cccc cccc ccccc ccccc ccccc ccccc
%f  1.2500000  1.025000000  0.00000000000  0.000000000000000
%f  0.0000000  0.000000000  0.00000000000  0.000000000000000
%i    0    0    0    0      0      0      0      0         0
%i    0    0    0    0      0      0      0      0         0
/* FINAL ORBIT COMBINATION FROM WEIGHTED AVERAGE OF:        
/* cod emr esa gfz grg jpl mit ngs sio                      
/* REFERENCED TO IGS TIME (IGST) AND TO WEIGHTED MEAN POLE: 
/* PCV:IGS05_1604 OL/AL:FES2004  NONE     Y  ORB:CMB CLK:CMB
*  2010  9 27  3  0  0.00000000
PG01 -23135.564177  -2386.422934  12820.316531 999999.999999
PG02  22905.283619 -12765.339057  -2069.711718    291.412665  7  7  7 125       
PG03 -11194.884954  15559.387687  17855.167888    613.766819  4  6  5 114       
PG04  23376.658587  -3417.036054 -12671.429294    179.615859  9 10  9 112       
PG05  14906.469503  -8286.156012  20375.345507    -42.487112  7  7  7  86       
PG06 -14121.775811  10243.670577  20148.556522    478.017815  5  7  6 101       
PG07   8913.572989  12053.975281  21925.874487     -1.678773  6  4  4 134       
PG08  19163.966166   3527.471773  18302.591561      6.774457  7  6  7 121       
PG09  10539.714824 -19206.675134 -15547.867027     32.914388  7  7  8  84       
PG10  23714.436793   4210.346026  11390.591854    -53.533683  5  6  5 123       
PG11  -2777.299660  21156.453703 -15889.081142    -92.410581  8  6  6 156       
PG12  -1423.987019 -16823.343346 -20506.830218    -69.052746  7  6  7 130       
PG13   5600.062907  23758.454549  10277.122462    296.434246  7  6  4 101       
PG14 -14003.157604  -6893.535455 -21358.490048     92.527278  6  7  4 122       
PG15   5672.433948 -24110.954872   9432.231254   -203.634441  8  7  5 122       
PG16 -19724.107789   2530.113008  17771.770562   -112.131614  7  8  8 107       
PG17  14042.167219  10178.644201 -20068.359595    172.234824  4  7  4 114       
PG18 -18450.545523 -17608.283236   8374.691563     95.447628  5  6  7  91       
PG19  -7508.224290  23714.480463   8848.553137    -69.268761  8  8  5 142       
PG20   2174.011881  17546.098810 -19972.152668     50.754029  9  7  5 119       
PG21 -12395.328958 -10932.769338  21228.346804    -91.006906  5  4  4 107       
PG22 -23931.479889 -11197.982565  -3012.888318    162.214554  3  7  6 118       
PG23    463.448031  26370.210173     44.019386    351.851694  8  8  4 130       
PG24 -21639.855069  14720.743491  -3631.519983    325.140479  8  9  6 113       
PG25 -12954.945630 -18162.329470 -14427.849689    -42.926657  8  9 11 134       
PG26  11509.725016 -16643.519693  16405.664199    -18.509014  5     5 114       
PG27  15880.561266 -18572.941995  -9460.501621    192.781067  6  8  8 166       
PG28  22918.627877  13726.898199    215.285183     -1.983976  6  8  6 115       
PG29  -6097.819319 -24290.303341   8987.708859    152.199727  6  6  6 111       
PG30 -13860.185574 -17938.417997 -14276.562813    281.966456  8  7  7 124       
PG31 -23700.623641   6337.090856 -10195.450594     -5.860211  8 10  8 127       
PG32  -4615.489113  14863.037316 -21231.628213    -94.843908  7  4  6 119       
*  2010  9 27  3 15  0.00000000
PG01 -24247.649129  -3160.916358  10402.192848 999999.999999
PG02  22767.376011 -12251.289807  -4872.896420    291.415187  7  7  7 116       
PG03 -11780.568854  13416.828368  19171.576532    613.771758  4  6  5 110       
PG04  22210.551299  -2391.816296 -14819.058179    179.623744  9  9  8 119       
PG05  16889.088825  -7183.298415  19223.184828    -42.491891  7  7  7  98       
PG06 -14475.597151   7938.607504  20944.194278    478.004699  6  7  6  94       
PG07   6810.111160  13412.297805  21873.985113     -1.678365  6  5  3 134       
PG08  17307.162635   4623.467487  19797.554920      6.774818  7  7  7 114       
PG09  11901.993224 -19990.678633 -13340.549455     32.916600  6  7  8           
PG10  24647.942393   4962.718490   8904.507525    -53.534594  5  7  5 116       
PG11  -4175.298195  22181.567196 -14008.855352    -92.412916  8  7  6 155       
PG12    732.274014 -15778.170713 -21341.957427    -69.049708  7  7  7 114       
PG13   5427.138240  24794.513647   7606.469170    296.433377  7  6  4  73       
PG14 -13968.708919  -9310.069343 -20464.415918     92.530853  5  7  4 118       
PG15   6015.871445 -22909.838345  11906.562153   -203.629617  8  7  5 123       
PG16 -21347.463355   1513.748541  15936.894176   -112.134693  7  8  7  84       
PG17  14011.939918  12420.481844 -18813.510745    172.235913  4  7  4 106       
PG18 -17394.671791 -17345.332882  10863.147309     95.449330  5  5  7  90       
PG19  -7738.247979  22543.050655  11384.815576    -69.271735  7  8  5 137       
PG20     31.197827  16666.033196 -20826.215290     50.753656  9  7  5 116       
PG21 -10401.812835 -12228.492835  21538.975550    -91.009649  5  5  2 105       
PG22 -23958.449663 -11581.301863   -226.702570    162.213677  2  6  6 113       
PG23    191.810049  26222.904235  -2837.887507    351.850154  8  9  5 118       
PG24 -22021.629914  14589.981928   -799.455396    325.143722  8  9  6 105       
PG25 -11288.604462 -17559.327687 -16438.488382    -42.928008  8  9 11  92       
PG26  11629.526992 -14551.665969  18191.923453    -18.515301  6  2  5 119       
PG27  16827.435749 -19000.928838  -6763.404552 999999.999999
PG28  22704.804865  13839.770205   3067.269100     -1.982767  5  7  6 114       
PG29  -5885.123624 -25160.898874   6316.429439    152.201886  7  7  6 102       
PG30 -12250.066456 -17412.191550 -16311.248014    281.967624  8  7  7 123       
PG31 -22680.423959   5470.639777 -12653.899755     -5.857311  7 10  7 132       
PG32  -6764.420595  13558.278445 -21490.515785    -94.852223  7  4  6 110       
*  2010  9 27  3 30  0.00000000
PG01 -25137.326948  -3763.068272   7805.292916 999999.999999
PG02  22404.327662 -11539.817827  -7589.803456    291.417667  7  7  7 123       
PG03 -12493.522923  11176.488189  20144.264205    613.777444  4  6  5  92       
PG04  20915.118604  -1175.025044 -16718.625643    179.631468  9  9  8 119       
PG05  18788.256133  -6242.949787  17740.884547    -42.497142  6  7  7  94       
PG06 -14951.387310   5587.099843  21383.820333    477.991417  6  7  6 106       
PG07   4803.349224  14867.043136  21445.160019     -1.678244  5  6  3 131       
PG08  15387.823942   5909.087957  20957.123030      6.774908  7  7  7 108       
PG09  13018.798211 -20689.012135 -10910.239183     32.918444  5  7  8  49       
PG10  25355.766905   5544.143760   6267.073264    -53.535272  5  7  5 122       
PG11  -5392.114769  23091.959368 -11887.699652    -92.415428  8  7  6 153       
PG12   3010.695540 -14820.245377 -21809.485357    -69.046268  7  7  8 124       
PG13   5299.572032  25526.660989   4803.948845    296.432476  7  7  4  96       
PG14 -14060.581721 -11600.837780 -19214.551401     92.534001  5  6  4 117       
PG15   6455.072220 -21461.739209  14174.837176   -203.625052  8  7  6 126       
PG16 -22821.380462    681.728355  13831.514145   -112.137773  6  8  7  92       
PG17  14084.043511  14498.622003 -17234.298155    172.237275  5  7  4 115       
PG18 -16085.340605 -17023.434011  13170.819124     95.451640  4  5  6  70       
PG19  -8037.283318  21108.433020  13721.882447    -69.274685  7  9  5 137       
PG20  -2222.623998  15863.148773 -21326.465046     50.753326  9  8  5 112       
PG21  -8457.277468 -13631.994654  21491.373009    -91.011772  5  5  2  98       
PG22 -23719.538399 -11829.958560   2563.377860    162.212699  2  5  6 112       
PG23   -122.125343  25765.526167  -5669.929794    351.848165  8  9  4 127       
PG24 -22140.630525  14299.697931   2046.580835    325.146494  8  8  5 121       
PG25  -9397.755854 -16963.461142 -18166.567964    -42.929401  8  9 11  81       
PG26  11873.480601 -12280.248562  19645.950404    -18.521552  6  2  6 116       
PG27  17500.588241 -19278.609930  -3945.902819    192.788121  8  8  8 124       
PG28  22212.825904  13825.558600   5867.714021     -1.981053  5  7  6 108       
PG29  -5691.736072 -25734.819477   3536.937648    152.204224  7  8  6  97       
PG30 -10419.080304 -16895.637256 -18073.304330    281.971428  9  7  7 130       
PG31 -21494.256743   4388.271427 -14894.096317     -5.854108  7  9  7 136       
PG32  -8986.948378  12358.473791 -21368.356815    -94.860219  7  5  5 107       
EOF
